NORAD_CAT_ID,OBJECT_NAME,OBJECT_TYPE,EPOCH,MEAN_MOTION,ECCENTRICITY,INCLINATION,RA_OF_ASC_NODE,ARG_OF_PERICENTER,MEAN_ANOMALY,BSTAR,MEAN_MOTION_DOT,MEAN_MOTION_DDOT,TLE_LINE0,TLE_LINE1,TLE_LINE2,SEMIMAJOR_AXIS,PERIOD,APOGEE,PERIGEE,DECAYED
52306.0,STARLINK-3747,PAYLOAD,2023-04-23 09:50:44,15.08830111,0.0001269,53.2159,128.496,98.4064,261.7072,0.00013337,1.835e-05,0.0,0 STARLINK-3747,1 52306U 22041AX  23113.41023595  .00001835  00000-0  13337-3 0  9991,2 52306  53.2159 128.4960 0001269  98.4064 261.7072 15.08830111 57153,6917.911,95.438,540.653,538.898,0.0
52306.0,STARLINK-3747,PAYLOAD,2023-04-24 11:16:53,15.0885226,0.0001338,53.2155,123.7376,96.1249,263.9896,0.00020654,3.002e-05,0.0,0 STARLINK-3747,1 52306U 22041AX  23114.47006438  .00003002  00000-0  20654-3 0  9993,2 52306  53.2155 123.7376 0001338  96.1249 263.9896 15.08852260 57310,6917.843,95.437,540.634,538.782,0.0
52306.0,STARLINK-3747,PAYLOAD,2023-04-25 12:43:04,15.08835305,0.0001173,53.2167,118.9799,98.3427,261.7698,-1.8103e-05,-5.76e-06,0.0,0 STARLINK-3747,1 52306U 22041AX  23115.52991705 -.00000576  00000-0 -18103-4 0  9992,2 52306  53.2167 118.9799 0001173  98.3427 261.7698 15.08835305 57471,6917.895,95.438,540.571,538.948,0.0
52306.0,STARLINK-3747,PAYLOAD,2023-04-26 06:12:19,15.0883522,0.0001264,53.2171,115.7099,86.2861,273.8275,5.6699e-05,6.15e-06,0.0,0 STARLINK-3747,1 52306U 22041AX  23116.25855603  .00000615  00000-0  56699-4 0  9993,2 52306  53.2171 115.7099 0001264  86.2861 273.8275 15.08835220 57586,6917.895,95.438,540.634,538.886,0.0
52306.0,STARLINK-3747,PAYLOAD,2023-04-26 17:20:01,15.08839009,0.0001278,53.2173,113.6277,86.5247,273.5891,7.8574e-05,9.63e-06,0.0,0 STARLINK-3747,1 52306U 22041AX  23116.72223382  .00000963  00000-0  78574-4 0  9990,2 52306  53.2173 113.6277 0001278  86.5247 273.5891 15.08839009 57657,6917.883,95.438,540.633,538.864,0.0
52306.0,STARLINK-3747,PAYLOAD,2023-04-27 10:49:14,15.08846217,0.0001258,53.2169,110.3566,84.4471,275.6664,0.00016697,2.371e-05,0.0,0 STARLINK-3747,1 52306U 22041AX  23117.45086620  .00002371  00000-0  16697-3 0  9995,2 52306  53.2169 110.3566 0001258  84.4471 275.6664 15.08846217 57763,6917.861,95.437,540.597,538.856,0.0
52306.0,STARLINK-3747,PAYLOAD,2023-04-28 05:53:52,15.08842844,0.0001217,53.2167,106.79,84.148,275.9651,4.0896e-05,3.63e-06,0.0,0 STARLINK-3747,1 52306U 22041AX  23118.24575193  .00000363  00000-0  40896-4 0  9999,2 52306  53.2167 106.7900 0001217  84.1480 275.9651 15.08842844 57888,6917.872,95.437,540.579,538.895,0.0
52306.0,STARLINK-3747,PAYLOAD,2023-04-28 09:04:39,15.08840689,0.0001355,53.2176,106.1924,91.6523,268.4624,4.874e-05,4.88e-06,0.0,0 STARLINK-3747,1 52306U 22041AX  23118.37823232  .00000488  00000-0  48740-4 0  9997,2 52306  53.2176 106.1924 0001355  91.6523 268.4624 15.08840689 57907,6917.878,95.438,540.681,538.806,0.0
52306.0,STARLINK-3747,PAYLOAD,2023-04-29 05:44:40,15.08840139,0.0001308,53.217,102.3267,90.6411,269.4731,-2.6156e-05,-7.04e-06,0.0,0 STARLINK-3747,1 52306U 22041AX  23119.23935500 -.00000704  00000-0 -26156-4 0  9995,2 52306  53.2170 102.3267 0001308  90.6411 269.4731 15.08840139 58037,6917.88,95.438,540.65,538.84,0.0
52306.0,STARLINK-3747,PAYLOAD,2023-04-29 10:30:49,15.08842451,0.0001253,53.2172,101.4356,89.1013,271.0123,-4.1604e-05,-9.5e-06,0.0,0 STARLINK-3747,1 52306U 22041AX  23119.43807412 -.00000950  00000-0 -41604-4 0  9995,2 52306  53.2172 101.4356 0001253  89.1013 271.0123 15.08842451 58064,6917.873,95.437,540.605,538.871,0.0
52306.0,STARLINK-3747,PAYLOAD,2023-04-30 08:46:13,15.08843382,0.0001265,53.2178,97.2726,89.7942,270.3195,3.0846e-05,2.03e-06,0.0,0 STARLINK-3747,1 52306U 22041AX  23120.36543260  .00000203  00000-0  30846-4 0  9992,2 52306  53.2178  97.2726 0001265  89.7942 270.3195 15.08843382 58204,6917.87,95.437,540.61,538.86,0.0
52306.0,STARLINK-3747,PAYLOAD,2023-05-01 03:50:52,15.08827805,0.000131,53.2185,93.7035,88.5858,271.5284,-2.1703e-06,-3.22e-06,0.0,0 STARLINK-3747,1 52306U 22041AX  23121.16032803 -.00000322  00000-0 -21703-5 0  9994,2 52306  53.2185  93.7035 0001310  88.5858 271.5284 15.08827805 58327,6917.918,95.438,540.689,538.876,0.0
52306.0,STARLINK-3747,PAYLOAD,2023-05-01 07:01:38,15.08830067,0.0001255,53.2182,93.1089,86.312,273.8016,3.4838e-06,-2.32e-06,0.0,0 STARLINK-3747,1 52306U 22041AX  23121.29280721 -.00000232  00000-0  34838-5 0  9994,2 52306  53.2182  93.1089 0001255  86.3120 273.8016 15.08830067 58347,6917.911,95.438,540.644,538.908,0.0
52306.0,STARLINK-3747,PAYLOAD,2023-05-02 05:17:01,15.08843638,0.0001152,53.2174,88.9453,93.2155,266.8969,5.9393e-05,6.58e-06,0.0,0 STARLINK-3747,1 52306U 22041AX  23122.22015951  .00000658  00000-0  59393-4 0  9992,2 52306  53.2174  88.9453 0001152  93.2155 266.8969 15.08843638 58488,6917.869,95.437,540.531,538.937,0.0
52306.0,STARLINK-3747,PAYLOAD,2023-05-02 06:52:24,15.08846517,0.0001184,53.2177,88.6476,92.7602,267.3525,8.4393e-05,1.056e-05,0.0,0 STARLINK-3747,1 52306U 22041AX  23122.28639700  .00001056  00000-0  84393-4 0  9993,2 52306  53.2177  88.6476 0001184  92.7602 267.3525 15.08846517 58493,6917.86,95.437,540.545,538.906,0.0
52306.0,STARLINK-3747,PAYLOAD,2023-05-02 21:10:53,15.08837944,0.0001258,53.2167,85.9725,103.8774,256.2358,0.0001134,1.517e-05,0.0,0 STARLINK-3747,1 52306U 22041AX  23122.88256134  .00001517  00000-0  11340-3 0  9998,2 52306  53.2167  85.9725 0001258 103.8774 256.2358 15.08837944 58580,6917.887,95.438,540.622,538.881,0.0
52306.0,STARLINK-3747,PAYLOAD,2023-05-03 05:07:48,15.0884433,0.0001115,53.2171,84.4869,91.8585,268.2535,0.00011366,1.522e-05,0.0,0 STARLINK-3747,1 52306U 22041AX  23123.21375768  .00001522  00000-0  11366-3 0  9995,2 52306  53.2171  84.4869 0001115  91.8585 268.2535 15.08844330 58639,6917.867,95.437,540.503,538.961,0.0
52306.0,STARLINK-3747,PAYLOAD,2023-05-03 21:01:40,15.08841569,0.0001308,53.2183,81.5146,91.634,268.4802,-2.5086e-05,-6.87e-06,0.0,0 STARLINK-3747,1 52306U 22041AX  23123.87616526 -.00000687  00000-0 -25086-4 0  9995,2 52306  53.2183  81.5146 0001308  91.6340 268.4802 15.08841569 58730,6917.876,95.437,540.645,538.836,0.0
52306.0,STARLINK-3747,PAYLOAD,2023-05-04 03:23:13,15.08837159,0.0001437,53.2176,80.3249,125.9975,234.1151,-1.3839e-05,-5.08e-06,0.0,0 STARLINK-3747,1 52306U 22041AX  23124.14112538 -.00000508  00000-0 -13839-4 0  9995,2 52306  53.2176  80.3249 0001437 125.9975 234.1151 15.08837159 58772,6917.889,95.438,540.748,538.76,0.0
52306.0,STARLINK-3747,PAYLOAD,2023-05-04 06:33:59,15.08842743,0.0001289,53.218,79.7289,91.3949,268.7191,-2.3735e-05,-6.66e-06,0.0,0 STARLINK-3747,1 52306U 22041AX  23124.27360354 -.00000666  00000-0 -23735-4 0  9991,2 52306  53.2180  79.7289 0001289  91.3949 268.7191 15.08842743 58799,6917.872,95.437,540.629,538.845,0.0
52306.0,STARLINK-3747,PAYLOAD,2023-05-04 20:52:27,15.08840595,0.0001228,53.2184,77.0532,93.7438,266.3695,3.2826e-05,2.35e-06,0.0,0 STARLINK-3747,1 52306U 22041AX  23124.86976254  .00000235  00000-0  32826-4 0  9999,2 52306  53.2184  77.0532 0001228  93.7438 266.3695 15.08840595 58883,6917.879,95.438,540.593,538.894,0.0
52306.0,STARLINK-3747,PAYLOAD,2023-05-05 06:24:45,15.08851018,0.0001614,53.2184,75.2691,101.1695,258.9479,7.1732e-05,8.54e-06,0.0,0 STARLINK-3747,1 52306U 22041AX  23125.26719378  .00000854  00000-0  71732-4 0  9992,2 52306  53.2184  75.2691 0001614 101.1695 258.9479 15.08851018 58943,6917.847,95.437,540.828,538.595,0.0
52306.0,STARLINK-3747,PAYLOAD,2023-05-06 03:04:47,15.08839369,0.0001247,53.2178,71.4028,89.1885,270.925,6.005e-05,6.68e-06,0.0,0 STARLINK-3747,1 52306U 22041AX  23126.12832253  .00000668  00000-0  60050-4 0  9990,2 52306  53.2178  71.4028 0001247  89.1885 270.9250 15.08839369 59077,6917.882,95.438,540.61,538.885,0.0
52306.0,STARLINK-3747,PAYLOAD,2023-05-06 06:15:33,15.08843152,0.0001305,53.2179,70.808,89.761,270.3532,9.2955e-05,1.192e-05,0.0,0 STARLINK-3747,1 52306U 22041AX  23126.26080026  .00001192  00000-0  92955-4 0  9990,2 52306  53.2179  70.8080 0001305  89.7610 270.3532 15.08843152 59090,6917.871,95.437,540.639,538.833,0.0
52306.0,STARLINK-3747,PAYLOAD,2023-05-07 02:55:33,15.08853793,0.0001232,53.2177,66.9434,93.2216,266.8917,0.00011843,1.598e-05,0.0,0 STARLINK-3747,1 52306U 22041AX  23127.12191159  .00001598  00000-0  11843-3 0  9992,2 52306  53.2177  66.9434 0001232  93.2216 266.8917 15.08853793 59222,6917.838,95.437,540.556,538.851,0.0
52306.0,STARLINK-3747,PAYLOAD,2023-05-08 04:21:45,15.08830932,0.0001066,53.2184,62.1848,84.3195,275.7918,-4.1575e-05,-9.49e-06,0.0,0 STARLINK-3747,1 52306U 22041AX  23128.18177446 -.00000949  00000-0 -41575-4 0  9999,2 52306  53.2184  62.1848 0001066  84.3195 275.7918 15.08830932 59386,6917.908,95.438,540.511,539.036,0.0
52306.0,STARLINK-3747,PAYLOAD,2023-05-08 12:18:40,15.08835995,0.0001075,53.2186,60.6979,85.1783,274.9332,4.3955e-06,-2.18e-06,0.0,0 STARLINK-3747,1 52306U 22041AX  23128.51297112 -.00000218  00000-0  43955-5 0  9992,2 52306  53.2186  60.6979 0001075  85.1783 274.9332 15.08835995 59439,6917.893,95.438,540.501,539.014,0.0
52306.0,STARLINK-3747,PAYLOAD,2023-05-09 02:37:08,15.0885157,9.51e-05,53.2184,58.0219,85.9369,274.1732,6.6078e-05,7.64e-06,0.0,0 STARLINK-3747,1 52306U 22041AX  23129.10912040  .00000764  00000-0  66078-4 0  9997,2 52306  53.2184  58.0219 0000951  85.9369 274.1732 15.08851570 59528,6917.845,95.437,540.368,539.052,0.0
52306.0,STARLINK-3747,PAYLOAD,2023-05-10 04:03:18,15.08841165,8.15e-05,53.2187,53.2641,80.034,280.0744,0.00020569,2.987e-05,0.0,0 STARLINK-3747,1 52306U 22041AX  23130.16896805  .00002987  00000-0  20569-3 0  9998,2 52306  53.2187  53.2641 0000815  80.0340 280.0744 15.08841165 59686,6917.877,95.437,540.306,539.178,0.0
52306.0,STARLINK-3747,PAYLOAD,2023-05-11 00:43:19,15.08842347,8.76e-05,53.2182,49.3985,72.4385,287.6703,4.3243e-05,4.01e-06,0.0,0 STARLINK-3747,1 52306U 22041AX  23131.03008810  .00000401  00000-0  43243-4 0  9990,2 52306  53.2182  49.3985 0000876  72.4385 287.6703 15.08842347 59815,6917.873,95.437,540.344,539.132,0.0
